OBJECT_NAME,OBJECT_ID,EPOCH,MEAN_MOTION,ECCENTRICITY,INCLINATION,RA_OF_ASC_NODE,ARG_OF_PERICENTER,MEAN_ANOMALY,EPHEMERIS_TYPE,CLASSIFICATION_TYPE,NORAD_CAT_ID,ELEMENT_SET_NO,REV_AT_EPOCH,BSTAR,MEAN_MOTION_DOT,MEAN_MOTION_DDOT
STARLINK-5168,2022-136W,2026-07-06T03:48:40.400352,15.08827460,.0001343,53.1588,171.7397,68.2348,291.8786,0,U,54071,999,20473,-.41326305E-4,-.945E-5,0
STARLINK-5146,2022-136Y,2026-07-06T03:46:40.861632,15.08828299,.00012671,53.1591,166.7479,84.0854,276.0282,0,U,54073,999,20480,-.53873887E-4,-.1145E-4,0
STARLINK-5192,2022-136Z,2026-07-06T03:43:22.000800,15.08828556,.00013567,53.1592,171.7151,74.6442,285.4699,0,U,54074,999,20473,-.32561848E-4,-.806E-5,0
STARLINK-5212,2022-136AA,2026-07-06T06:00:04.000320,15.31689618,.00013713,53.1607,163.9903,84.0192,184.1406,0,U,54075,999,549,.52998179E-3,.16111E-3,0
STARLINK-5201,2022-136AB,2026-07-06T03:28:57.028800,15.08826019,.00011356,53.1593,172.3454,84.8918,275.2203,0,U,54076,999,20472,-.22336259E-4,-.643E-5,0
STARLINK-5171,2022-136AC,2026-07-06T04:01:28.743456,15.08829843,.00012682,53.1590,147.6797,78.4394,281.6740,0,U,54077,999,20507,-.40534466E-4,-.933E-5,0
STARLINK-5175,2022-136AE,2026-07-06T03:28:53.358528,15.08831408,.00011548,53.1588,162.3690,74.6328,285.4791,0,U,54079,999,20486,-.17317946E-4,-.563E-5,0
STARLINK-5210,2022-136AH,2026-07-06T03:23:35.051424,15.08833842,.00015346,53.1593,162.3443,88.4569,271.6598,0,U,54082,999,20486,-.8093007E-5,-.417E-5,0
STARLINK-5178,2022-136AJ,2026-07-06T04:43:02.985312,15.08833108,.00012163,53.1588,161.9774,82.7658,277.3471,0,U,54083,999,20487,-.800082E-5,-.415E-5,0
STARLINK-5183,2022-136AK,2026-07-06T03:18:17.159040,15.08834466,.00012999,53.1592,162.3215,86.2575,273.8565,0,U,54084,999,20486,.88172638E-4,.1115E-4,0
STARLINK-5166,2022-136AL,2026-07-06T04:39:07.705152,15.08829761,.0001665,53.1600,161.9609,80.5171,279.6009,0,U,54085,999,20487,-.11675389E-3,-.2145E-4,0
STARLINK-5211,2022-136AM,2026-07-06T04:42:24.338592,15.08823260,.00013412,53.1598,147.0159,86.5349,273.5796,0,U,54086,999,20508,-.37170082E-4,-.879E-5,0
STARLINK-5184,2022-136AN,2026-07-06T03:44:41.760096,15.08826268,.00013064,53.1593,161.7345,86.8500,273.2641,0,U,54087,999,20487,-.1758308E-4,-.568E-5,0
STARLINK-5153,2022-136AP,2026-07-06T04:48:21.608640,15.08833438,.00014217,53.1588,162.0006,91.1079,269.0075,0,U,54088,999,20487,-.10037186E-3,-.1885E-4,0
STARLINK-5143,2022-136AQ,2026-07-06T04:16:31.225152,15.08856864,.00011889,53.1594,161.8652,103.4685,256.6439,0,U,54089,999,20487,-.39678673E-3,-.66E-4,0
STARLINK-5177,2022-136AR,2026-07-06T04:21:50.918976,15.08831034,.00012388,53.1598,161.8861,74.9092,285.2036,0,U,54090,999,20487,.71559568E-4,.851E-5,0
STARLINK-5221,2022-136AS,2026-07-06T03:39:23.350176,15.08824382,.00013225,53.1605,161.7104,86.4047,273.7095,0,U,54091,999,20487,-.65961073E-4,-.1337E-4,0
STARLINK-5190,2022-136AT,2026-07-06T06:00:04.000320,15.89275188,.00057079,53.1696,303.9668,332.7874,343.0102,0,U,54092,999,601,.71118738E-3,.214967E-2,0
STARLINK-5213,2022-136AU,2026-07-06T04:00:36.746208,15.08823063,.0001169,53.1601,161.7913,84.0796,276.0329,0,U,54093,999,20487,-.24693532E-3,-.4214E-4,0
STARLINK-5193,2022-136AW,2026-07-06T03:50:00.150144,15.08823440,.00015004,53.1601,161.7481,102.8080,257.3080,0,U,54095,999,20487,-.66741712E-4,-.135E-4,0
STARLINK-5188,2022-136AX,2026-07-06T04:05:55.344480,15.08823307,.00011234,53.1598,161.8171,91.9839,268.1281,0,U,54096,999,20487,-.23634815E-4,-.664E-5,0
STARLINK-5197,2022-136AY,2026-07-06T04:17:10.817952,15.08848826,.00015628,53.1603,136.9216,83.7389,276.3780,0,U,54097,999,20522,.16845142E-3,.2395E-4,0
STARLINK-5217,2022-136AZ,2026-07-06T03:46:12.148320,15.08833696,.00014266,53.1605,162.4262,113.6001,246.5140,0,U,54098,999,20486,.75234224E-4,.909E-5,0
STARLINK-5198,2022-136BA,2026-07-06T03:34:04.722528,15.08826917,.00014496,53.1597,161.6810,59.6549,300.4585,0,U,54099,999,20487,-.43727091E-4,-.984E-5,0
STARLINK-5185,2022-136BB,2026-07-06T03:55:18.649920,15.08821825,.0000937,53.1606,161.7665,91.2765,268.8334,0,U,54100,999,20487,-.65347538E-4,-.1327E-4,0
STARLINK-5204,2022-136BC,2026-07-06T06:00:04.000320,15.27412179,.00020095,53.1609,145.6399,80.6862,78.7530,0,U,54101,999,580,.42685101E-1,.1269888E-1,0
STARLINK-5179,2022-136BD,2026-07-06T04:37:44.858784,15.08829147,.00012106,53.1588,161.9441,82.0605,278.0524,0,U,54102,999,20487,-.21924405E-4,-.637E-5,0
STARLINK-5200,2022-136BE,2026-07-06T03:57:58.190112,15.08823717,.00013621,53.1596,141.8384,94.5305,265.5842,0,U,54103,999,20515,-.98626313E-4,-.1857E-4,0
STARLINK-5203,2022-136BF,2026-07-06T06:00:04.000320,15.29231739,.00011503,53.1646,125.0792,87.9971,10.3674,0,U,54104,999,580,.19626203E-1,.604549E-2,0
COSMOS 2561,2022-137A,2026-07-05T20:39:39.760704,15.52197813,.0008415,96.9168,245.1671,323.2590,36.8086,0,U,54109,999,20924,.23129E-3,.13947E-3,0
ONEWEB-0490,2022-138A,2026-07-05T20:40:19.377696,13.19725390,.00019288,87.9190,301.2487,106.3909,253.7436,0,U,54113,999,17929,.44377124E-4,.31E-6,0
ONEWEB-0492,2022-138B,2026-07-05T19:27:31.468896,13.19726803,.00021313,87.9183,301.2590,106.1729,253.9638,0,U,54114,999,17929,.24639297E-3,.112E-5,0
ONEWEB-0495,2022-138C,2026-07-05T20:44:52.346400,13.19725993,.00018853,87.9184,301.2507,120.7751,239.3567,0,U,54115,999,17928,.74749459E-4,.43E-6,0
ONEWEB-0497,2022-138D,2026-07-05T21:03:04.277376,13.19725328,.00019631,87.9191,301.2416,103.2490,256.8862,0,U,54116,999,17927,.10412729E-3,.55E-6,0
ONEWEB-0499,2022-138E,2026-07-05T20:39:09.581184,13.19723193,.00017783,87.9183,301.2527,106.4255,253.7073,0,U,54117,999,17928,.65943071E-4,.39E-6,0
ONEWEB-0500,2022-138F,2026-07-05T20:42:36.205920,13.19725137,.00020527,87.9191,301.2476,100.2553,259.8811,0,U,54118,999,17929,.9098491E-5,.17E-6,0
ONEWEB-0501,2022-138G,2026-07-05T17:47:28.351104,13.19725858,.00018315,87.9192,301.2719,113.4768,246.6558,0,U,54119,999,17925,.87782668E-4,.48E-6,0
ONEWEB-0502,2022-138H,2026-07-05T21:05:20.678784,13.19724945,.00017426,87.9194,301.2336,105.4438,254.6887,0,U,54120,999,17929,.16327744E-3,.78E-6,0
ONEWEB-0503,2022-138J,2026-07-05T20:49:25.330656,13.19725297,.0001786,87.9194,301.2415,95.8497,264.2839,0,U,54121,999,17928,-.3103804E-5,.12E-6,0
ONEWEB-0504,2022-138K,2026-07-05T20:31:13.588032,13.19725947,.00017408,87.9193,301.2489,104.9765,255.1561,0,U,54122,999,17929,.33725186E-4,.26E-6,0
ONEWEB-0505,2022-138L,2026-07-05T20:26:39.414048,13.19726605,.00017167,87.9191,301.2503,113.5263,246.6051,0,U,54123,999,17927,.25099522E-4,.23E-6,0
ONEWEB-0506,2022-138M,2026-07-05T19:50:17.496096,13.19724697,.00018172,87.9192,301.2528,110.4130,249.7198,0,U,54124,999,17926,.21089443E-3,.97E-6,0
ONEWEB-0507,2022-138N,2026-07-05T20:19:50.996928,13.19726063,.00019031,87.9184,301.2592,106.9276,253.2066,0,U,54125,999,17931,.2354603E-3,.107E-5,0
ONEWEB-0508,2022-138P,2026-07-05T18:26:07.659744,13.19725491,.00020115,87.9183,301.2742,114.1310,246.0033,0,U,54126,999,17928,-.20297146E-3,-.68E-6,0
ONEWEB-0509,2022-138Q,2026-07-05T19:38:53.095776,13.19723701,.00018882,87.9195,301.2558,105.5636,254.5706,0,U,54127,999,17926,.28762157E-3,.128E-5,0
ONEWEB-0510,2022-138R,2026-07-05T23:53:25.727424,13.20773772,.00022028,87.9192,270.6882,87.9837,272.1549,0,U,54128,999,18176,-.20674126E-3,-.71E-6,0
ONEWEB-0511,2022-138S,2026-07-05T19:34:20.168544,13.19726979,.00016368,87.9189,301.2583,99.2685,260.8633,0,U,54129,999,17929,.30487206E-3,.135E-5,0
ONEWEB-0512,2022-138T,2026-07-05T21:12:09.234144,13.19725782,.00016876,87.9184,301.2486,108.0260,252.1057,0,U,54130,999,17927,.2300355E-3,.105E-5,0
ONEWEB-0513,2022-138U,2026-07-05T19:20:02.214816,13.20269643,.00011534,87.9190,301.2059,120.1334,239.9914,0,U,54131,999,17917,.15451342E-4,.19E-6,0
ONEWEB-0514,2022-138V,2026-07-05T19:45:43.735104,13.19726075,.00019664,87.9191,301.2562,96.3471,263.7885,0,U,54132,999,17928,.35561927E-4,.27E-6,0
ONEWEB-0515,2022-138W,2026-07-05T23:34:04.621152,13.20771568,.00028944,87.9198,270.6863,94.9085,265.2379,0,U,54133,999,18178,-.27380664E-4,.2E-7,0
ONEWEB-0516,2022-138X,2026-07-05T20:58:29.751744,13.19726052,.00020297,87.9184,301.2505,104.5865,255.5493,0,U,54134,999,17929,.14039971E-3,.69E-6,0
ONEWEB-0517,2022-138Y,2026-07-05T20:28:56.898912,13.19725340,.00017214,87.9192,301.2485,92.9783,267.1547,0,U,54135,999,17929,.11963421E-3,.61E-6,0
ONEWEB-0518,2022-138Z,2026-07-05T20:56:12.925248,13.19723401,.00021265,87.9184,301.2531,104.2668,255.8701,0,U,54136,999,17929,.17381576E-3,.83E-6,0
ONEWEB-0519,2022-138AA,2026-07-05T19:43:26.166432,13.19727068,.00018116,87.9191,301.2559,95.9780,264.1559,0,U,54137,999,17929,.76765463E-4,.44E-6,0
ONEWEB-0520,2022-138AB,2026-07-05T20:33:30.041280,13.19725809,.00018788,87.9193,301.2491,108.7195,251.4142,0,U,54138,999,17928,.4959044E-5,.15E-6,0
ONEWEB-0521,2022-138AC,2026-07-05T19:32:04.326144,13.19726236,.00018327,87.9194,301.2463,94.1962,265.9380,0,U,54139,999,17922,.22749252E-3,.104E-5,0
ONEWEB-0522,2022-138AD,2026-07-05T20:51:41.916960,13.19725582,.00018643,87.9195,301.2381,104.3209,255.8131,0,U,54140,999,17927,.76317952E-4,.43E-6,0
ONEWEB-0523,2022-138AE,2026-07-06T04:41:56.132448,13.20771916,.00025353,87.9196,270.6534,83.6545,276.4877,0,U,54141,999,18181,.28636406E-3,.129E-5,0
ONEWEB-0524,2022-138AF,2026-07-06T04:27:23.778432,13.20772120,.00029316,87.9194,270.6521,99.5752,260.5712,0,U,54142,999,18181,.19243546E-3,.91E-6,0
ONEWEB-0525,2022-138AG,2026-07-05T19:29:47.448672,13.19726299,.00019705,87.9192,301.2564,112.2031,247.9311,0,U,54143,999,17928,.23421932E-3,.107E-5,0
ONEWEB-0526,2022-138AH,2026-07-05T20:17:32.750016,13.19726574,.00020239,87.9192,301.2505,104.6214,255.5143,0,U,54144,999,17926,.60563194E-4,.37E-6,0
ONEWEB-0529,2022-138AJ,2026-07-05T18:32:57.019488,13.19725880,.00019359,87.9185,301.2726,107.9120,252.2224,0,U,54145,999,17927,-.16903859E-3,-.55E-6,0
ONEWEB-0531,2022-138AK,2026-07-06T04:07:59.795904,13.20773307,.00027817,87.9191,270.6521,87.6021,272.5431,0,U,54146,999,18181,.20510577E-3,.96E-6,0
